[{"OBJECT_NAME":"LINGQIAO VIDEO B","OBJECT_ID":"2015-057C","EPOCH":"2026-03-09T23:35:26.721888","MEAN_MOTION":14.77336016,"ECCENTRICITY":0.00156503,"INCLINATION":97.6585,"RA_OF_ASC_NODE":69.8903,"ARG_OF_PERICENTER":229.2428,"MEAN_ANOMALY":130.7425,"EPHEMERIS_TYPE":0,"CLASSIFICATION_TYPE":"U","NORAD_CAT_ID":40960,"ELEMENT_SET_NO":999,"REV_AT_EPOCH":56080,"BSTAR":0.00021138214,"MEAN_MOTION_DOT":1.456e-5,"MEAN_MOTION_DDOT":0},{"OBJECT_NAME":"H-2A R\/B","OBJECT_ID":"2025-141B","EPOCH":"2026-03-09T20:50:08.593728","MEAN_MOTION":14.90469893,"ECCENTRICITY":0.00923902,"INCLINATION":98.076,"RA_OF_ASC_NODE":17.3096,"ARG_OF_PERICENTER":151.0716,"MEAN_ANOMALY":209.5668,"EPHEMERIS_TYPE":0,"CLASSIFICATION_TYPE":"U","NORAD_CAT_ID":64695,"ELEMENT_SET_NO":999,"REV_AT_EPOCH":3783,"BSTAR":0.00033350933,"MEAN_MOTION_DOT":3.464e-5,"MEAN_MOTION_DDOT":0}]
